{
  "norad_id": 48215,
  "name": "ONEWEB-0209",
  "history": [
    {
      "epoch": "2026-03-28T20:41:19.517280Z",
      "apogee_km": 1207.0474087373204,
      "perigee_km": 1204.5289388656047,
      "latitude_deg": -2.7798071667478718e-05,
      "longitude_deg": 169.14348410333568,
      "height_km": 1208.4042850451385,
      "semi_major_axis_km": 7583.925173801462,
      "eccentricity": 0.00016604,
      "inclination_deg": 87.8944,
      "raan_deg": 305.7512,
      "arg_perigee_deg": 77.3891,
      "mean_anomaly_deg": 282.7424,
      "mean_motion_rev_day": 13.14503367
    },
    {
      "epoch": "2026-03-29T02:10:09.196608Z",
      "apogee_km": 1207.0488815564358,
      "perigee_km": 1204.5234351447061,
      "latitude_deg": -1.3881544958449167e-06,
      "longitude_deg": 86.66571310091108,
      "height_km": 1208.40812490077,
      "semi_major_axis_km": 7583.923158350571,
      "eccentricity": 0.0001665,
      "inclination_deg": 87.8941,
      "raan_deg": 305.7055,
      "arg_perigee_deg": 77.6973,
      "mean_anomaly_deg": 282.4343,
      "mean_motion_rev_day": 13.14503891
    },
    {
      "epoch": "2026-03-30T01:55:04.687104Z",
      "apogee_km": 1207.0301476142176,
      "perigee_km": 1204.5456538167427,
      "latitude_deg": -6.711735343923845e-06,
      "longitude_deg": 89.26167666333205,
      "height_km": 1208.4165456209103,
      "semi_major_axis_km": 7583.92490071548,
      "eccentricity": 0.0001638,
      "inclination_deg": 87.8941,
      "raan_deg": 305.508,
      "arg_perigee_deg": 77.8044,
      "mean_anomaly_deg": 282.3269,
      "mean_motion_rev_day": 13.14503438
    },
    {
      "epoch": "2026-03-30T12:52:44.145984Z",
      "apogee_km": 1207.023552347553,
      "perigee_km": 1204.552102924723,
      "latitude_deg": -6.6634995869673275e-06,
      "longitude_deg": -75.69378547174003,
      "height_km": 1208.4167265857823,
      "semi_major_axis_km": 7583.924827636138,
      "eccentricity": 0.00016294,
      "inclination_deg": 87.894,
      "raan_deg": 305.4171,
      "arg_perigee_deg": 77.7504,
      "mean_anomaly_deg": 282.3808,
      "mean_motion_rev_day": 13.14503457
    }
  ]
}